[ {"CREATION_DATE": "2004-08-15T23:36:44", "OBJECT_NAME": "TITAN 3C TRANSTAGE DEB", "OBJECT_ID": "1965-082PN", "EPOCH": "1969-04-27T02:21:52.464960", "FILE": "33933", "TLE_LINE0": "0 TITAN 3C TRANSTAGE DEB", "TLE_LINE1": "1 03453U 65082 PN 69117.09852390  .04404311 +00000-0 +00000-0 0  9993", "TLE_LINE2": "2 03453 032.4143 039.9344 0042199 202.3082 157.5697 15.67965010186003"}, {"CREATION_DATE": "2004-08-15T23:36:44", "OBJECT_NAME": "SL-7 DEB", "OBJECT_ID": "1968-117M", "EPOCH": "1969-04-30T07:19:44.609951", "FILE": "33933", "TLE_LINE0": "0 SL-7 DEB", "TLE_LINE1": "1 03639U 68117  M 69120.30537743  .03853558 +00000-0 +00000-0 0  9991", "TLE_LINE2": "2 03639 071.0358 099.2931 0008010 219.2256 140.8281 16.33730834019817"}, {"CREATION_DATE": "2004-08-15T23:36:44", "OBJECT_NAME": "WESTFORD NEEDLES", "OBJECT_ID": "1963-014BY", "EPOCH": "1969-04-30T22:15:57.796992", "FILE": "33933", "TLE_LINE0": "0 WESTFORD NEEDLES", "TLE_LINE1": "1 03258U 63014 BY 69120.92775228  .00000919 +00000-0 +99999-4 0  9990", "TLE_LINE2": "2 03258 085.5534 308.7200 2341292 045.8560 331.2799 08.78273700024205"}, {"CREATION_DATE": "2004-08-15T23:36:44", "OBJECT_NAME": "COSMOS 249 DEB", "OBJECT_ID": "1968-091W", "EPOCH": "1969-05-02T20:12:19.811807", "FILE": "33933", "TLE_LINE0": "0 COSMOS 249 DEB", "TLE_LINE1": "1 03588U 68091  W 69122.84189597  .04058879 +00000-0 +00000-0 0  9990", "TLE_LINE2": "2 03588 062.1916 253.4223 0186864 137.6459 223.9162 15.75807300028135"}, {"CREATION_DATE": "2004-08-15T23:36:44", "OBJECT_NAME": "SL-7 DEB", "OBJECT_ID": "1968-117P", "EPOCH": "1969-05-03T08:51:55.638143", "FILE": "33933", "TLE_LINE0": "0 SL-7 DEB", "TLE_LINE1": "1 03641U 68117  P 69123.36939396  .01879887 +00000-0 +00000-0 0  9994", "TLE_LINE2": "2 03641 071.0598 094.8171 0039185 208.9163 150.9775 16.14306923020473"}, {"CREATION_DATE": "2004-08-15T23:36:44", "OBJECT_NAME": "SCOUT B DEB", "OBJECT_ID": "1968-084D", "EPOCH": "1969-05-03T21:50:55.295807", "FILE": "33933", "TLE_LINE0": "0 SCOUT B DEB", "TLE_LINE1": "1 03916U 68084  D 69123.91036222  .21955797 +00000-0 +00000-0 0  9996", "TLE_LINE2": "2 03916 093.1540 108.8565 0129190 151.6553 209.1714 15.91471793030929"}, {"CREATION_DATE": "2004-08-15T23:36:44", "OBJECT_NAME": "SL-6 PLAT", "OBJECT_ID": "1969-035D", "EPOCH": "1969-05-04T22:33:03.682944", "FILE": "33933", "TLE_LINE0": "0 SL-6 PLAT", "TLE_LINE1": "1 03888U 69035  D 69124.93962596  .08253912 +00000-0 +00000-0 0  9991", "TLE_LINE2": "2 03888 064.9950 186.6745 0001407 026.7463 333.3684 16.40999385003804"}, {"CREATION_DATE": "2004-08-15T23:36:44", "OBJECT_NAME": "SL-8 DEB", "OBJECT_ID": "1969-021D", "EPOCH": "1969-05-05T12:44:51.969120", "FILE": "33933", "TLE_LINE0": "0 SL-8 DEB", "TLE_LINE1": "1 03781U 69021  D 69125.53115705  .06438909 +00000-0 +00000-0 0  9996", "TLE_LINE2": "2 03781 073.8265 299.5718 0000010 000.0001 000.1246 16.05260921009234"}, {"CREATION_DATE": "2004-08-15T23:36:44", "OBJECT_NAME": "COSMOS 280 DEB", "OBJECT_ID": "1969-040D", "EPOCH": "1969-05-06T12:05:15.018720", "FILE": "33933", "TLE_LINE0": "0 COSMOS 280 DEB", "TLE_LINE1": "1 03920U 69040  D 69126.50364605  .03986136 +00000-0 +00000-0 0  9992", "TLE_LINE2": "2 03920 051.5829 298.3551 0008010 082.6519 277.5316 16.29246412000209"}, {"CREATION_DATE": "2004-08-15T23:36:44", "OBJECT_NAME": "TITAN 3C TRANSTAGE DEB", "OBJECT_ID": "1965-082NG", "EPOCH": "1969-05-06T21:17:51.476640", "FILE": "33933", "TLE_LINE0": "0 TITAN 3C TRANSTAGE DEB", "TLE_LINE1": "1 03406U 65082 NG 69126.88740135  .36061173 +1000001 +00000-0 0  9992", "TLE_LINE2": "2 03406 030.5656 041.8643 0052760 299.7680 059.7676 16.19524069186094"}, {"CREATION_DATE": "2004-08-15T23:36:44", "OBJECT_NAME": "COSMOS 280 DEB", "OBJECT_ID": "1969-040C", "EPOCH": "1969-05-07T08:45:39.269375", "FILE": "33933", "TLE_LINE0": "0 COSMOS 280 DEB", "TLE_LINE1": "1 03919U 69040  C 69127.36503784  .04207690 +00000-0 +00000-0 0  9990", "TLE_LINE2": "2 03919 051.5934 293.5957 0015967 091.0256 269.2499 16.31827739000347"}, {"CREATION_DATE": "2004-08-15T23:36:44", "OBJECT_NAME": "SL-8 DEB", "OBJECT_ID": "1969-021R", "EPOCH": "1969-05-12T19:15:41.588351", "FILE": "33933", "TLE_LINE0": "0 SL-8 DEB", "TLE_LINE1": "1 03821U 69021  R 69132.80256468  .00000000 +00000-0 +00000-0 0  9992", "TLE_LINE2": "2 03821 071.8589 270.9110 0057389 208.1927 151.6066 15.90188905010322"}, {"CREATION_DATE": "2004-08-15T23:36:44", "OBJECT_NAME": "TITAN 3C TRANSTAGE DEB", "OBJECT_ID": "1965-082NF", "EPOCH": "1969-05-15T13:24:03.491999", "FILE": "33933", "TLE_LINE0": "0 TITAN 3C TRANSTAGE DEB", "TLE_LINE1": "1 03405U 65082 NF 69135.55837375  .01790636 +00000-0 +00000-0 0  9992", "TLE_LINE2": "2 03405 031.8767 306.0143 0028230 349.0543 010.9451 15.82332698187605"}, {"CREATION_DATE": "2004-08-15T23:36:44", "OBJECT_NAME": "OPS 1101 DEB", "OBJECT_ID": "1969-041C", "EPOCH": "1969-05-18T18:52:04.665504", "FILE": "33933", "TLE_LINE0": "0 OPS 1101 DEB", "TLE_LINE1": "1 03942U 69041  C 69138.78616511  .16361689 +00000-0 +00000-0 0  9990", "TLE_LINE2": "2 03942 064.8906 263.8860 0039702 113.6735 246.8507 16.29408626002696"}, {"CREATION_DATE": "2004-08-15T23:36:44", "OBJECT_NAME": "COSMOS 252 DEB", "OBJECT_ID": "1968-097BT", "EPOCH": "1969-05-21T15:46:23.196288", "FILE": "33933", "TLE_LINE0": "0 COSMOS 252 DEB", "TLE_LINE1": "1 03946U 68097 BT 69141.65721292  .02711431 +00000-0 +00000-0 0  9996", "TLE_LINE2": "2 03946 062.1539 225.0503 0208230 125.9610 236.0908 15.45798074010768"}, {"CREATION_DATE": "2004-08-15T23:36:44", "OBJECT_NAME": "TITAN 3C TRANSTAGE DEB", "OBJECT_ID": "1965-082HN", "EPOCH": "1969-05-24T21:22:30.050112", "FILE": "33933", "TLE_LINE0": "0 TITAN 3C TRANSTAGE DEB", "TLE_LINE1": "1 01980U 65082 HN 69144.89062558  .01861015 +00000-0 +00000-0 0  9998", "TLE_LINE2": "2 01980 032.3479 012.9758 0000000 000.0000 000.0629 16.20871455198970"}, {"CREATION_DATE": "2004-08-15T23:36:44", "OBJECT_NAME": "WESTFORD NEEDLES", "OBJECT_ID": "1963-014BL", "EPOCH": "1969-05-27T09:15:32.803776", "FILE": "33933", "TLE_LINE0": "0 WESTFORD NEEDLES", "TLE_LINE1": "1 03246U 63014 BL 69147.38579634  .00000000 +00000-0 +00000-0 0  9991", "TLE_LINE2": "2 03246 085.4009 298.8482 2366929 008.7326 354.8099 08.79371689187043"}, {"CREATION_DATE": "2004-08-15T23:36:44", "OBJECT_NAME": "SL-3 DEB", "OBJECT_ID": "1969-029R", "EPOCH": "1969-05-29T17:53:00.583296", "FILE": "33933", "TLE_LINE0": "0 SL-3 DEB", "TLE_LINE1": "1 03866U 69029  R 69149.74514564  .03276027 +00000-0 +00000-0 0  9991", "TLE_LINE2": "2 03866 081.0597 319.9178 0036480 327.2125 032.6752 15.80452090009734"}, {"CREATION_DATE": "2004-08-15T23:36:44", "OBJECT_NAME": "SL-3 DEB", "OBJECT_ID": "1969-048C", "EPOCH": "1969-05-30T00:35:37.228415", "FILE": "33933", "TLE_LINE0": "0 SL-3 DEB", "TLE_LINE1": "1 03973U 69048  C 69150.02473644  .09007622 +00000-0 +00000-0 0  9996", "TLE_LINE2": "2 03973 051.7487 358.0989 0028058 008.5020 351.6377 16.31907760000143"}, {"CREATION_DATE": "2004-08-15T23:36:44", "OBJECT_NAME": "THOR ABLESTAR DEB", "OBJECT_ID": "1961-015CY", "EPOCH": "1969-05-31T10:25:29.761535", "FILE": "33933", "TLE_LINE0": "0 THOR ABLESTAR DEB", "TLE_LINE1": "1 00322U 61015 CY 69151.43437224  .01485372 +00000-0 +00000-0 0  9991", "TLE_LINE2": "2 00322 066.9507 041.2530 0025182 329.9502 030.0123 15.97504007425788"}, {"CREATION_DATE": "2004-08-15T23:36:44", "OBJECT_NAME": "THOR ABLESTAR DEB", "OBJECT_ID": "1961-015JH", "EPOCH": "1969-06-01T18:02:14.742528", "FILE": "33933", "TLE_LINE0": "0 THOR ABLESTAR DEB", "TLE_LINE1": "1 03968U 61015 JH 69152.75155952  .03625719 +00000-0 +00000-0 0  9994", "TLE_LINE2": "2 03968 065.6187 280.0414 0084850 353.5377 006.4584 16.06348491400887"}, {"CREATION_DATE": "2004-08-15T23:36:44", "OBJECT_NAME": "SL-3 DEB", "OBJECT_ID": "1969-029AL", "EPOCH": "1969-06-05T21:01:10.427232", "FILE": "33933", "TLE_LINE0": "0 SL-3 DEB", "TLE_LINE1": "1 03967U 69029 AL 69156.87581513  .00420916 +00000-0 +00000-0 0  9998", "TLE_LINE2": "2 03967 081.0994 312.7599 0081039 342.6058 017.2416 15.35246606010384"}, {"CREATION_DATE": "2004-08-15T23:36:44", "OBJECT_NAME": "TITAN 3C TRANSTAGE DEB", "OBJECT_ID": "1965-082PF", "EPOCH": "1969-06-08T05:14:17.720159", "FILE": "33933", "TLE_LINE0": "0 TITAN 3C TRANSTAGE DEB", "TLE_LINE1": "1 03442U 65082 PF 69159.21826065  .01942403 +00000-0 +00000-0 0  9997", "TLE_LINE2": "2 03442 031.5119 109.9088 0042313 195.4902 164.4395 15.34285671197015"}, {"CREATION_DATE": "2004-08-15T23:36:44", "OBJECT_NAME": "SL-8 DEB", "OBJECT_ID": "1969-021L", "EPOCH": "1969-06-08T13:44:07.316160", "FILE": "33933", "TLE_LINE0": "0 SL-8 DEB", "TLE_LINE1": "1 03803U 69021  L 69159.57230690  .00000000 +00000-0 +00000-0 0  9994", "TLE_LINE2": "2 03803 072.4983 212.4213 0002869 152.7948 207.3312 15.95741373014395"}, {"CREATION_DATE": "2004-08-15T23:36:44", "OBJECT_NAME": "TITAN 3C TRANSTAGE DEB", "OBJECT_ID": "1965-082RJ", "EPOCH": "1969-06-16T12:51:29.914560", "FILE": "33933", "TLE_LINE0": "0 TITAN 3C TRANSTAGE DEB", "TLE_LINE1": "1 03727U 65082 RJ 69167.53576290  .01756183 +00000-0 +00000-0 0  9997", "TLE_LINE2": "2 03727 032.3065 240.2702 0000060 111.8274 248.2411 15.79239454021753"}, {"CREATION_DATE": "2004-08-15T23:36:44", "OBJECT_NAME": "TITAN 3C TRANSTAGE DEB", "OBJECT_ID": "1965-082RL", "EPOCH": "1969-06-17T08:46:30.160703", "FILE": "33933", "TLE_LINE0": "0 TITAN 3C TRANSTAGE DEB", "TLE_LINE1": "1 03729U 65082 RL 69168.36562686  .01974898 +00000-0 +00000-0 0  9990", "TLE_LINE2": "2 03729 033.4011 252.1232 0040439 332.5863 027.2623 15.20580953021252"}, {"CREATION_DATE": "2004-08-15T23:36:44", "OBJECT_NAME": "SL-3 DEB", "OBJECT_ID": "1969-029AF", "EPOCH": "1969-06-19T23:40:59.613311", "FILE": "33933", "TLE_LINE0": "0 SL-3 DEB", "TLE_LINE1": "1 03917U 69029 AF 69170.98680108  .00913087 +00000-0 +00000-0 0  9997", "TLE_LINE2": "2 03917 081.1500 288.3520 0030099 279.4521 170.2438 15.66920565012841"}]